H1 CPF 01  gfz 2022 05 14 12  6342 terrasarx 
H2 0702601  6201 31698    2022 05 14 12 59 42 2022 05 19 00 00 42   120 1 1  0 0 0
H9
10 0 59717  82062.000000  0   -2320024.552   5630661.305   3211504.851
10 0 59717  82182.000000  0   -2284112.549   6041858.738   2387032.317
10 0 59717  82302.000000  0   -2202001.176   6346376.379   1520521.337
10 0 59717  82422.000000  0   -2077049.399   6538117.856    627232.754
10 0 59717  82542.000000  0   -1913460.189   6613046.435   -277100.360
10 0 59717  82662.000000  0   -1716169.182   6569271.881  -1176558.203
10 0 59717  82782.000000  0   -1490717.766   6407094.146  -2055326.029
10 0 59717  82902.000000  0   -1243113.499   6128997.784  -2897981.568
10 0 59717  83022.000000  0    -979683.701   5739603.840  -3689768.618
10 0 59717  83142.000000  0    -706925.614   5245582.729  -4416856.130
10 0 59717  83262.000000  0    -431356.588   4655527.638  -5066577.495
10 0 59717  83382.000000  0    -159367.299   3979794.100  -5627645.202
10 0 59717  83502.000000  0     102918.827   3230308.477  -6090339.205
10 0 59717  83622.000000  0     349776.444   2420349.230  -6446664.711
10 0 59717  83742.000000  0     575996.418   1564308.056  -6690478.158
10 0 59717  83862.000000  0     776990.487    677435.020  -6817583.360
10 0 59717  83982.000000  0     948880.099   -224429.846  -6825795.922
10 0 59717  84102.000000  0    1088568.337  -1125134.299  -6714976.289
10 0 59717  84222.000000  0    1193793.916  -2008495.793  -6487030.089
10 0 59717  84342.000000  0    1263167.212  -2858583.775  -6145879.303
10 0 59717  84462.000000  0    1296188.226  -3660002.058  -5697404.223
10 0 59717  84582.000000  0    1293244.221  -4398167.515  -5149352.006
10 0 59717  84702.000000  0    1255589.107  -5059576.402  -4511212.888
10 0 59717  84822.000000  0    1185303.873  -5632056.605  -3794067.756
10 0 59717  84942.000000  0    1085237.738  -6105000.946  -3010404.783
10 0 59717  85062.000000  0     958932.190  -6469574.634  -2173908.416
10 0 59717  85182.000000  0     810529.238  -6718893.011  -1299223.384
10 0 59717  85302.000000  0     644664.895  -6848163.619   -401696.752
10 0 59717  85422.000000  0     466350.820  -6854787.584    502896.105
10 0 59717  85542.000000  0     280847.242  -6738418.567   1398635.385
10 0 59717  85662.000000  0      93530.223  -6500977.240   2269745.872
10 0 59717  85782.000000  0     -90243.351  -6146619.312   3100884.957
10 0 59717  85902.000000  0    -265269.537  -5681656.235   3877421.481
10 0 59717  86022.000000  0    -426626.762  -5114433.885   4585696.813
10 0 59717  86142.000000  0    -569797.020  -4455173.725   5213267.385
10 0 59717  86262.000000  0    -690775.900  -3715778.720   5749122.561
10 0 59717  86382.000000  0    -786169.507  -2909608.515   6183875.679
99
